{
  "type": "FeatureCollection",
  "features": [
    {
      "type": "Feature",
      "properties": {
        "norad_id": 34886,
        "name": "COSMOS 2251 DEB",
        "group": "cosmos-2251-debris",
        "lat": 0.5215708644951597,
        "lon": 3.6319314483867506,
        "alt_km": 473.57908010423944,
        "timestamp": "2025-12-11T10:53:16.285388+00:00",
        "meta_object_name": "COSMOS 2251 DEB",
        "meta_object_id": "1993-036ACZ",
        "meta_epoch": "2025-12-06T20:50:12.525792",
        "meta_mean_motion": 15.37603061,
        "meta_eccentricity": 0.00307569,
        "meta_inclination": 73.9508,
        "meta_ra_of_asc_node": 193.7093,
        "meta_arg_of_pericenter": 18.7929,
        "meta_mean_anomaly": 341.4404,
        "meta_ephemeris_type": 0,
        "meta_classification_type": "U",
        "meta_norad_cat_id": 34886,
        "meta_element_set_no": 999,
        "meta_rev_at_epoch": 62908,
        "meta_bstar": 0.0027638496,
        "meta_mean_motion_dot": 0.00105044,
        "meta_mean_motion_ddot": 0,
        "tle_line1": "1 34886U 93036ACZ 25340.86820053  .00105044  00000+0  27638-2 0  9997",
        "tle_line2": "2 34886  73.9508 193.7093 0030756  18.7929 341.4404 15.37603061629089"
      },
      "geometry": {
        "type": "Point",
        "coordinates": [
          3.6319314483867506,
          0.5215708644951597
        ]
      }
    },
    {
      "type": "Feature",
      "properties": {
        "norad_id": 34907,
        "name": "COSMOS 2251 DEB",
        "group": "cosmos-2251-debris",
        "lat": 72.59943480864766,
        "lon": 117.79740331364081,
        "alt_km": 433.1635433358788,
        "timestamp": "2025-12-11T10:53:16.285398+00:00",
        "meta_object_name": "COSMOS 2251 DEB",
        "meta_object_id": "1993-036ADC",
        "meta_epoch": "2025-12-11T04:18:12.042720",
        "meta_mean_motion": 15.42460828,
        "meta_eccentricity": 0.0020454,
        "meta_inclination": 73.9666,
        "meta_ra_of_asc_node": 51.8114,
        "meta_arg_of_pericenter": 344.1901,
        "meta_mean_anomaly": 15.8666,
        "meta_ephemeris_type": 0,
        "meta_classification_type": "U",
        "meta_norad_cat_id": 34907,
        "meta_element_set_no": 999,
        "meta_rev_at_epoch": 87949,
        "meta_bstar": 0.00996,
        "meta_mean_motion_dot": 0.00460677,
        "meta_mean_motion_ddot": 0,
        "tle_line1": "1 34907U 93036ADC 25345.17930605  .00460677  00000+0  99600-2 0  9999",
        "tle_line2": "2 34907  73.9666  51.8114 0020454 344.1901  15.8666 15.42460828879498"
      },
      "geometry": {
        "type": "Point",
        "coordinates": [
          117.79740331364081,
          72.59943480864766
        ]
      }
    },
    {
      "type": "Feature",
      "properties": {
        "norad_id": 34908,
        "name": "COSMOS 2251 DEB",
        "group": "cosmos-2251-debris",
        "lat": -72.43804949728477,
        "lon": -89.41184679599576,
        "alt_km": 795.9654271501049,
        "timestamp": "2025-12-11T10:53:16.285409+00:00",
        "meta_object_name": "COSMOS 2251 DEB",
        "meta_object_id": "1993-036ADD",
        "meta_epoch": "2025-12-09T02:40:40.417824",
        "meta_mean_motion": 14.37380886,
        "meta_eccentricity": 0.0039928,
        "meta_inclination": 74.0591,
        "meta_ra_of_asc_node": 30.3236,
        "meta_arg_of_pericenter": 47.6348,
        "meta_mean_anomaly": 340.778,
        "meta_ephemeris_type": 0,
        "meta_classification_type": "U",
        "meta_norad_cat_id": 34908,
        "meta_element_set_no": 999,
        "meta_rev_at_epoch": 87227,
        "meta_bstar": 0.00063868598,
        "meta_mean_motion_dot": 1.9e-05,
        "meta_mean_motion_ddot": 0,
        "tle_line1": "1 34908U 93036ADD 25343.11157891  .00001900  00000+0  63869-3 0  9999",
        "tle_line2": "2 34908  74.0591  30.3236 0039928  47.6348 340.7780 14.37380886872275"
      },
      "geometry": {
        "type": "Point",
        "coordinates": [
          -89.41184679599576,
          -72.43804949728477
        ]
      }
    },
    {
      "type": "Feature",
      "properties": {
        "norad_id": 34909,
        "name": "COSMOS 2251 DEB",
        "group": "cosmos-2251-debris",
        "lat": -28.21840518934124,
        "lon": -92.050658637105,
        "alt_km": 582.6203055248507,
        "timestamp": "2025-12-11T10:53:16.285419+00:00",
        "meta_object_name": "COSMOS 2251 DEB",
        "meta_object_id": "1993-036ADE",
        "meta_epoch": "2025-12-10T14:26:38.499936",
        "meta_mean_motion": 14.77803538,
        "meta_eccentricity": 0.0084687,
        "meta_inclination": 74.0144,
        "meta_ra_of_asc_node": 80.7743,
        "meta_arg_of_pericenter": 217.0856,
        "meta_mean_anomaly": 142.445,
        "meta_ephemeris_type": 0,
        "meta_classification_type": "U",
        "meta_norad_cat_id": 34909,
        "meta_element_set_no": 999,
        "meta_rev_at_epoch": 66820,
        "meta_bstar": 0.0010159,
        "meta_mean_motion_dot": 7.719e-05,
        "meta_mean_motion_ddot": 0,
        "tle_line1": "1 34909U 93036ADE 25344.60183449  .00007719  00000+0  10159-2 0  9990",
        "tle_line2": "2 34909  74.0144  80.7743 0084687 217.0856 142.4450 14.77803538668206"
      },
      "geometry": {
        "type": "Point",
        "coordinates": [
          -92.050658637105,
          -28.21840518934124
        ]
      }
    },
    {
      "type": "Feature",
      "properties": {
        "norad_id": 34910,
        "name": "COSMOS 2251 DEB",
        "group": "cosmos-2251-debris",
        "lat": 73.84926983976925,
        "lon": -163.76246354819392,
        "alt_km": 1334.5661518352754,
        "timestamp": "2025-12-11T10:53:16.285446+00:00",
        "meta_object_name": "COSMOS 2251 DEB",
        "meta_object_id": "1993-036ADF",
        "meta_epoch": "2025-12-04T03:27:09.174816",
        "meta_mean_motion": 13.3765034,
        "meta_eccentricity": 0.04679235,
        "meta_inclination": 73.8763,
        "meta_ra_of_asc_node": 114.9889,
        "meta_arg_of_pericenter": 235.2756,
        "meta_mean_anomaly": 311.3517,
        "meta_ephemeris_type": 0,
        "meta_classification_type": "U",
        "meta_norad_cat_id": 34910,
        "meta_element_set_no": 999,
        "meta_rev_at_epoch": 81409,
        "meta_bstar": 0.0018660381,
        "meta_mean_motion_dot": 1.821e-05,
        "meta_mean_motion_ddot": 0,
        "tle_line1": "1 34910U 93036ADF 25338.14385619  .00001821  00000+0  18660-2 0  9990",
        "tle_line2": "2 34910  73.8763 114.9889 0467923 235.2756 311.3517 13.37650340814099"
      },
      "geometry": {
        "type": "Point",
        "coordinates": [
          -163.76246354819392,
          73.84926983976925
        ]
      }
    },
    {
      "type": "Feature",
      "properties": {
        "norad_id": 34911,
        "name": "COSMOS 2251 DEB",
        "group": "cosmos-2251-debris",
        "lat": 29.54236122397097,
        "lon": -103.4715594410342,
        "alt_km": 637.1699916280286,
        "timestamp": "2025-12-11T10:53:16.285457+00:00",
        "meta_object_name": "COSMOS 2251 DEB",
        "meta_object_id": "1993-036ADG",
        "meta_epoch": "2025-12-11T04:52:39.294912",
        "meta_mean_motion": 14.59367739,
        "meta_eccentricity": 0.0083531,
        "meta_inclination": 74.0413,
        "meta_ra_of_asc_node": 247.6722,
        "meta_arg_of_pericenter": 13.4623,
        "meta_mean_anomaly": 142.0531,
        "meta_ephemeris_type": 0,
        "meta_classification_type": "U",
        "meta_norad_cat_id": 34911,
        "meta_element_set_no": 999,
        "meta_rev_at_epoch": 88564,
        "meta_bstar": 0.00024963,
        "meta_mean_motion_dot": 1.208e-05,
        "meta_mean_motion_ddot": 0,
        "tle_line1": "1 34911U 93036ADG 25345.20323258  .00001208  00000+0  24963-3 0  9990",
        "tle_line2": "2 34911  74.0413 247.6722 0083531  13.4623 142.0531 14.59367739885649"
      },
      "geometry": {
        "type": "Point",
        "coordinates": [
          -103.4715594410342,
          29.54236122397097
        ]
      }
    },
    {
      "type": "Feature",
      "properties": {
        "norad_id": 34913,
        "name": "COSMOS 2251 DEB",
        "group": "cosmos-2251-debris",
        "lat": 30.281925484986854,
        "lon": 95.22785003555174,
        "alt_km": 779.9647977519653,
        "timestamp": "2025-12-11T10:53:16.285468+00:00",
        "meta_object_name": "COSMOS 2251 DEB",
        "meta_object_id": "1993-036ADJ",
        "meta_epoch": "2025-12-10T13:00:18.152064",
        "meta_mean_motion": 14.346364,
        "meta_eccentricity": 0.0020264,
        "meta_inclination": 74.0283,
        "meta_ra_of_asc_node": 286.5252,
        "meta_arg_of_pericenter": 37.1811,
        "meta_mean_anomaly": 83.6827,
        "meta_ephemeris_type": 0,
        "meta_classification_type": "U",
        "meta_norad_cat_id": 34913,
        "meta_element_set_no": 999,
        "meta_rev_at_epoch": 65156,
        "meta_bstar": 9.4175e-05,
        "meta_mean_motion_dot": 2.41e-06,
        "meta_mean_motion_ddot": 0,
        "tle_line1": "1 34913U 93036ADJ 25344.54187676  .00000241  00000+0  94175-4 0  9999",
        "tle_line2": "2 34913  74.0283 286.5252 0020264  37.1811  83.6827 14.34636400651569"
      },
      "geometry": {
        "type": "Point",
        "coordinates": [
          95.22785003555174,
          30.281925484986854
        ]
      }
    }
  ]
}